39084 LANDSAT 8               
1 39084U 13008A   20020.17990495  .00000040  00000-0  18870-4 0  9996
2 39084  98.2012  92.1678 0001264  80.8142 279.3204 14.57116720368960
30765 FENGYUN 1C DEB          
1 30765U 99025AUB 20019.58674727  .00000243  00000-0  16347-3 0  9997
2 30765  99.0073  60.6610 0074686 164.3061 348.2562 14.08362660665858
25555 COSMOS 41 DEB
1 25555U 64049K   01243.07134531  .30789454  77671-5  59958-2 0  9990
2 25555 064.4605 206.8041 0781151 026.0094 003.6799 14.59078674 66720
34589 COSMOS 2251 DEB         
1 34589U 93036WB  20019.66998538  .00000025  00000-0  33782-4 0  9990
2 34589  73.9266 110.9826 0256308 117.4029  31.9756 13.82314309550217
37533 COSMOS 2251 DEB         
1 37533U 93036BNN 20016.63180928  .00000100  00000-0  71197-4 0  9998
2 37533  74.0681 347.7976 0184602 201.3486 157.9879 14.01164666326357
COSMOS 2251 DEB
1 37533U 93036BNN 20016.63180928  .00000100  00000-0  71197-4 0  9998
2 37533  74.0681 347.7976 0184602 201.3486 157.9879 14.01164666326357
12345 COSMOS 1174 DEB
1 12345U 80030  T 92009.23815556  .10097346 +32413-4 +21065-2 0  9994
2 12345 066.0246 069.4044 0005369 163.4515 196.9505 16.30623664056223
25544 ISS (ZARYA)             
1 25544U 98067A   08264.51782528 -.00002182  00000-0 -11606-4 0  2927
2 25544  51.6416 247.4627 0006703 130.5360 325.0288 15.72125391563537
